[{"OBJECT_NAME":"EYESAT A (AO-27)","OBJECT_ID":"1993-061C","EPOCH":"2026-03-09T16:58:07.157856","MEAN_MOTION":14.30913089,"ECCENTRICITY":0.00089503,"INCLINATION":98.6982,"RA_OF_ASC_NODE":136.1171,"ARG_OF_PERICENTER":38.8989,"MEAN_ANOMALY":321.2837,"EPHEMERIS_TYPE":0,"CLASSIFICATION_TYPE":"U","NORAD_CAT_ID":22825,"ELEMENT_SET_NO":999,"REV_AT_EPOCH":69277,"BSTAR":7.1797441e-5,"MEAN_MOTION_DOT":1.44e-6,"MEAN_MOTION_DDOT":0},{"OBJECT_NAME":"COSMOS 1375 DEB","OBJECT_ID":"1982-055AT","EPOCH":"2026-03-09T17:36:38.552256","MEAN_MOTION":14.37434938,"ECCENTRICITY":0.00341398,"INCLINATION":65.823,"RA_OF_ASC_NODE":195.7282,"ARG_OF_PERICENTER":273.9847,"MEAN_ANOMALY":85.7345,"EPHEMERIS_TYPE":0,"CLASSIFICATION_TYPE":"U","NORAD_CAT_ID":17801,"ELEMENT_SET_NO":999,"REV_AT_EPOCH":7127,"BSTAR":0.0021313333,"MEAN_MOTION_DOT":6.34e-5,"MEAN_MOTION_DDOT":0}]
